{
  "norad_id": 52100,
  "name": "STARLINK-3702",
  "history": [
    {
      "epoch": "2026-03-28T17:44:43.503360Z",
      "apogee_km": 540.878525199877,
      "perigee_km": 538.6443207251968,
      "latitude_deg": 7.402039223433063e-05,
      "longitude_deg": -88.73332323850768,
      "height_km": 540.617343983752,
      "semi_major_axis_km": 6917.898422962537,
      "eccentricity": 0.00016148,
      "inclination_deg": 53.2203,
      "raan_deg": 3.6034,
      "arg_perigee_deg": 87.9621,
      "mean_anomaly_deg": 272.1557,
      "mean_motion_rev_day": 15.088341
    },
    {
      "epoch": "2026-03-29T03:17:02.009184Z",
      "apogee_km": 540.878965653852,
      "perigee_km": 538.5974504102442,
      "latitude_deg": -1.0130961691624977e-05,
      "longitude_deg": 126.014075366761,
      "height_km": 540.6241172533946,
      "semi_major_axis_km": 6917.875208032048,
      "eccentricity": 0.0001649,
      "inclination_deg": 53.2206,
      "raan_deg": 1.8197,
      "arg_perigee_deg": 89.5111,
      "mean_anomaly_deg": 270.607,
      "mean_motion_rev_day": 15.08841695
    },
    {
      "epoch": "2026-03-30T03:07:49.253088Z",
      "apogee_km": 540.877883779528,
      "perigee_km": 538.6102023736084,
      "latitude_deg": 3.7345972677442927e-06,
      "longitude_deg": 122.87779748926734,
      "height_km": 540.6173639694953,
      "semi_major_axis_km": 6917.881043076568,
      "eccentricity": 0.0001639,
      "inclination_deg": 53.2212,
      "raan_deg": 357.3596,
      "arg_perigee_deg": 88.8681,
      "mean_anomaly_deg": 271.2499,
      "mean_motion_rev_day": 15.08839786
    },
    {
      "epoch": "2026-03-30T20:37:03.931392Z",
      "apogee_km": 540.7363799107352,
      "perigee_km": 538.7990898687776,
      "latitude_deg": -3.4671526677648685e-05,
      "longitude_deg": -143.4255722588277,
      "height_km": 540.823321674214,
      "semi_major_axis_km": 6917.904734889757,
      "eccentricity": 0.00014002,
      "inclination_deg": 53.2181,
      "raan_deg": 354.0856,
      "arg_perigee_deg": 99.4978,
      "mean_anomaly_deg": 260.6172,
      "mean_motion_rev_day": 15.08832035
    },
    {
      "epoch": "2026-03-31T10:55:31.746720Z",
      "apogee_km": 540.6155681899145,
      "perigee_km": 538.856629775767,
      "latitude_deg": -1.921507764420588e-05,
      "longitude_deg": -1.3049546120865951,
      "height_km": 540.7121101698494,
      "semi_major_axis_km": 6917.87309898284,
      "eccentricity": 0.00012713,
      "inclination_deg": 53.2182,
      "raan_deg": 351.4097,
      "arg_perigee_deg": 95.2248,
      "mean_anomaly_deg": 264.8889,
      "mean_motion_rev_day": 15.08842385
    },
    {
      "epoch": "2026-04-01T01:14:00.762144Z",
      "apogee_km": 540.7888379956985,
      "perigee_km": 538.7454274729716,
      "latitude_deg": -2.978416935011178e-05,
      "longitude_deg": 140.81052962083578,
      "height_km": 540.8218264696128,
      "semi_major_axis_km": 6917.904132734335,
      "eccentricity": 0.00014769,
      "inclination_deg": 53.219,
      "raan_deg": 348.7337,
      "arg_perigee_deg": 98.9504,
      "mean_anomaly_deg": 261.1655,
      "mean_motion_rev_day": 15.08832232
    },
    {
      "epoch": "2026-04-02T02:40:10.695360Z",
      "apogee_km": 540.7699543161452,
      "perigee_km": 538.8149474533266,
      "latitude_deg": 1.0105632741119781e-05,
      "longitude_deg": 113.46744892297417,
      "height_km": 540.642587438906,
      "semi_major_axis_km": 6917.929450884736,
      "eccentricity": 0.0001413,
      "inclination_deg": 53.219,
      "raan_deg": 343.9766,
      "arg_perigee_deg": 87.3226,
      "mean_anomaly_deg": 272.7928,
      "mean_motion_rev_day": 15.08823949
    }
  ]
}